{"spkid": "20448003", "covariance": {"epoch": "2458842.5", "labels": ["e", "q", "tp", "node", "peri", "i"], "data": [["3.149373046019582E-16", "-5.400885316089715E-16", "6.381787077983011E-14", "-1.736019420583146E-14", "1.049911120838952E-13", "2.706015129408085E-15"], ["-5.400885316089715E-16", "9.265371767294095E-16", "-1.05736612805359E-13", "3.20102396020543E-14", "-1.800570141539405E-13", "-4.440491710663395E-15"], ["6.381787077983011E-14", "-1.05736612805359E-13", "1.414053446584154E-10", "-2.506279498214518E-11", "1.552959090574334E-10", "1.991466009041844E-11"], ["-1.736019420583146E-14", "3.20102396020543E-14", "-2.506279498214518E-11", "2.649715967183867E-10", "-2.693058715827618E-10", "-3.036327663437464E-11"], ["1.049911120838952E-13", "-1.800570141539405E-13", "1.552959090574334E-10", "-2.693058715827618E-10", "4.114410765032429E-10", "5.189537470828997E-11"], ["2.706015129408085E-15", "-4.440491710663395E-15", "1.991466009041844E-11", "-3.036327663437464E-11", "5.189537470828997E-11", "3.007640021086881E-11"]], "elements": [{"label": "e", "value": ".4136824622234399", "title": "eccentricity", "units": null, "name": "e", "sigma": 1.77464730186581e-08}, {"title": "perihelion distance", "value": "1.00507755227896", "units": "au", "sigma": 3.04390731910387e-08, "name": "q", "label": "q"}, {"name": "tp", "sigma": 1.18913979270065e-05, "title": "time of perihelion passage", "value": "2458701.297985127684", "units": "TDB", "label": "tp"}, {"label": "node", "name": "om", "sigma": 1.62779481728622e-05, "title": "longitude of the ascending node", "value": "55.94081463673078", "units": "deg"}, {"label": "peri", "name": "w", "sigma": 2.02840103653898e-05, "units": "deg", "value": "179.1848017053162", "title": "argument of perihelion"}, {"label": "i", "name": "i", "sigma": 5.48419549349481e-06, "units": "deg", "title": "inclination", "value": "14.76080167529651"}]}, "elements": [{"units": null, "title": "eccentricity", "value": ".4132931138495216", "name": "e", "sigma": "1.7678E-8", "label": "e"}, {"name": "a", "sigma": "9.6062E-10", "value": "1.714177287558308", "title": "semi-major axis", "units": "au", "label": "a"}, {"label": "q", "title": "perihelion distance", "value": "1.005719618693208", "units": "au", "name": "q", "sigma": "3.0288E-8"}, {"label": "i", "title": "inclination; angle with respect to x-y ecliptic plane", "value": "14.75670536239576", "units": "deg", "name": "i", "sigma": "5.4799E-6"}, {"label": "node", "sigma": "1.6283E-5", "name": "om", "units": "deg", "title": "longitude of the ascending node", "value": "55.89093891230632"}, {"label": "peri", "name": "w", "sigma": "2.03E-5", "title": "argument of perihelion", "value": "179.2717650271182", "units": "deg"}, {"units": "deg", "value": "17.3433862887313", "title": "mean anomaly", "sigma": "5.8651E-6", "name": "ma", "label": "M"}, {"sigma": "1.3332E-5", "name": "tp", "value": "2461161.007609005826", "title": "time of perihelion passage", "units": "TDB", "label": "tp"}, {"label": "period", "sigma": "6.8908E-7", "name": "per", "units": "d", "value": "819.7511443967682", "title": "sidereal orbital period"}, {"units": "deg/d", "title": "mean motion", "value": ".439157666885496", "sigma": "3.6916E-10", "name": "n", "label": "n"}, {"units": "au", "title": "aphelion distance", "value": "2.422634956423408", "sigma": "1.3576E-9", "name": "ad", "label": "Q"}], "epoch": "2461200.5"}